{
    "CCSDS_OMM_VERS": "3.0",
    "COMMENT": "GENERATED VIA SPACE-TRACK.ORG API",
    "CREATION_DATE": "2025-05-22T17:14:14",
    "ORIGINATOR": "18 SPCS",
    "OBJECT_NAME": "GALILEO-FM2",
    "OBJECT_ID": "2011-060B",
    "CENTER_NAME": "EARTH",
    "REF_FRAME": "TEME",
    "TIME_SYSTEM": "UTC",
    "MEAN_ELEMENT_THEORY": "SGP4",
    "EPOCH": "2025-05-22T09:43:25.531104",
    "MEAN_MOTION": "1.70475790",
    "ECCENTRICITY": "0.00038410",
    "INCLINATION": "57.0991",
    "RA_OF_ASC_NODE": "352.3539",
    "ARG_OF_PERICENTER": "6.6389",
    "MEAN_ANOMALY": "175.2162",
    "EPHEMERIS_TYPE": "0",
    "CLASSIFICATION_TYPE": "U",
    "NORAD_CAT_ID": "37847",
    "ELEMENT_SET_NO": "999",
    "REV_AT_EPOCH": "8446",
    "BSTAR": "0.00000000000000",
    "MEAN_MOTION_DOT": "-0.00000068",
    "MEAN_MOTION_DDOT": "0.0000000000000",
    "SEMIMAJOR_AXIS": "29600.113",
    "PERIOD": "844.695",
    "APOAPSIS": "23233.347",
    "PERIAPSIS": "23210.608",
    "OBJECT_TYPE": "PAYLOAD",
    "RCS_SIZE": "LARGE",
    "COUNTRY_CODE": "ESA",
    "LAUNCH_DATE": "2011-10-21",
    "SITE": "FRGUI",
    "DECAY_DATE": null,
    "FILE": "4736220",
    "GP_ID": "288141300",
    "TLE_LINE0": "0 GALILEO-FM2",
    "TLE_LINE1": "1 37847U 11060B   25142.40515661 -.00000068  00000-0  00000-0 0  9994",
    "TLE_LINE2": "2 37847  57.0991 352.3539 0003841   6.6389 175.2162  1.70475790 84466"
}